[
    {
        "Altitude(m)": 557914.1298273315,
        "Argument of Periapsis(deg)": 0.006622991110713501,
        "Eccentricity": 0.0,
        "Inclination(deg)": 53.0,
        "Latitude(deg)": 44.449862356680036,
        "Longitude(deg)": -43.450901826746396,
        "Mean Anomaly(deg)": 61.000692867577584,
        "RAAN(deg)": 9.990143368528015,
        "Satellite Name": "Starlink Shell 1 47",
        "Satellite Number": 47,
        "Semi-Major Axis(m)": 6931778.249405717,
        "Time(s)": 190
    },
    {
        "Altitude(m)": 557990.0207889634,
        "Argument of Periapsis(deg)": 0.0069715695902247375,
        "Eccentricity": 0.0,
        "Inclination(deg)": 53.0,
        "Latitude(deg)": 44.78744646135378,
        "Longitude(deg)": -42.75133045598705,
        "Mean Anomaly(deg)": 61.6275240711343,
        "RAAN(deg)": 9.989624598450543,
        "Satellite Name": "Starlink Shell 1 47",
        "Satellite Number": 47,
        "Semi-Major Axis(m)": 6931778.249405717,
        "Time(s)": 200
    },
    {
        "Altitude(m)": 558065.009856234,
        "Argument of Periapsis(deg)": 0.007320148069735974,
        "Eccentricity": 0.0,
        "Inclination(deg)": 53.0,
        "Latitude(deg)": 45.120149788805236,
        "Longitude(deg)": -42.04314343566446,
        "Mean Anomaly(deg)": 62.25435527469101,
        "RAAN(deg)": 9.989105828373072,
        "Satellite Name": "Starlink Shell 1 47",
        "Satellite Number": 47,
        "Semi-Major Axis(m)": 6931778.249405717,
        "Time(s)": 210
    },
    {
        "Altitude(m)": 558139.0501626867,
        "Argument of Periapsis(deg)": 0.007668726549247212,
        "Eccentricity": 0.0,
        "Inclination(deg)": 53.0,
        "Latitude(deg)": 45.44785954613724,
        "Longitude(deg)": -41.32626860275377,
        "Mean Anomaly(deg)": 62.88118647824773,
        "RAAN(deg)": 9.988587058295598,
        "Satellite Name": "Starlink Shell 1 47",
        "Satellite Number": 47,
        "Semi-Major Axis(m)": 6931778.249405717,
        "Time(s)": 220
    },
    {
        "Altitude(m)": 558212.0955308552,
        "Argument of Periapsis(deg)": 0.00801730502875845,
        "Eccentricity": 0.0,
        "Inclination(deg)": 53.0,
        "Latitude(deg)": 45.77046138873631,
        "Longitude(deg)": -40.600640088462754,
        "Mean Anomaly(deg)": 63.50801768180444,
        "RAAN(deg)": 9.988068288218127,
        "Satellite Name": "Starlink Shell 1 47",
        "Satellite Number": 47,
        "Semi-Major Axis(m)": 6931778.249405717,
        "Time(s)": 230
    },
    {
        "Altitude(m)": 558284.1004952899,
        "Argument of Periapsis(deg)": 0.008365883508269684,
        "Eccentricity": 0.0,
        "Inclination(deg)": 53.0,
        "Latitude(deg)": 46.08783949070769,
        "Longitude(deg)": -39.86619831242991,
        "Mean Anomaly(deg)": 64.13484888536117,
        "RAAN(deg)": 9.987549518140652,
        "Satellite Name": "Starlink Shell 1 47",
        "Satellite Number": 47,
        "Semi-Major Axis(m)": 6931778.249405717,
        "Time(s)": 240
    },
    {
        "Altitude(m)": 558355.0203252002,
        "Argument of Periapsis(deg)": 0.008714461987780921,
        "Eccentricity": 0.0,
        "Inclination(deg)": 53.0,
        "Latitude(deg)": 46.399876624170794,
        "Longitude(deg)": -39.12289150411673,
        "Mean Anomaly(deg)": 64.76168008891787,
        "RAAN(deg)": 9.98703074806318,
        "Satellite Name": "Starlink Shell 1 47",
        "Satellite Number": 47,
        "Semi-Major Axis(m)": 6931778.249405717,
        "Time(s)": 250
    },
    {
        "Altitude(m)": 558424.8110467067,
        "Argument of Periapsis(deg)": 0.009063040467292158,
        "Eccentricity": 0.0,
        "Inclination(deg)": 53.0,
        "Latitude(deg)": 46.70645424781706,
        "Longitude(deg)": -38.370675724206414,
        "Mean Anomaly(deg)": 65.38851129247459,
        "RAAN(deg)": 9.986511977985709,
        "Satellite Name": "Starlink Shell 1 47",
        "Satellite Number": 47,
        "Semi-Major Axis(m)": 6931778.249405717,
        "Time(s)": 260
    },
    {
        "Altitude(m)": 558493.4294647052,
        "Argument of Periapsis(deg)": 0.009411618946803396,
        "Eccentricity": 0.0,
        "Inclination(deg)": 53.0,
        "Latitude(deg)": 47.00745260510794,
        "Longitude(deg)": -37.60951489718543,
        "Mean Anomaly(deg)": 66.0153424960313,
        "RAAN(deg)": 9.985993207908233,
        "Satellite Name": "Starlink Shell 1 47",
        "Satellite Number": 47,
        "Semi-Major Axis(m)": 6931778.249405717,
        "Time(s)": 270
    },
    {
        "Altitude(m)": 558560.833184304,
        "Argument of Periapsis(deg)": 0.009760197426314633,
        "Eccentricity": 0.0,
        "Inclination(deg)": 53.0,
        "Latitude(deg)": 47.30275083246526,
        "Longitude(deg)": -36.839382366017816,
        "Mean Anomaly(deg)": 66.64217369958801,
        "RAAN(deg)": 9.985474437830762,
        "Satellite Name": "Starlink Shell 1 47",
        "Satellite Number": 47,
        "Semi-Major Axis(m)": 6931778.249405717,
        "Time(s)": 280
    },
    {
        "Altitude(m)": 558626.980631869,
        "Argument of Periapsis(deg)": 0.01010877590582587,
        "Eccentricity": 0.0,
        "Inclination(deg)": 53.0,
        "Latitude(deg)": 47.59222707778278,
        "Longitude(deg)": -36.06026094093277,
        "Mean Anomaly(deg)": 67.26900490314472,
        "RAAN(deg)": 9.984955667753288,
        "Satellite Name": "Starlink Shell 1 47",
        "Satellite Number": 47,
        "Semi-Major Axis(m)": 6931778.249405717,
        "Time(s)": 290
    },
    {
        "Altitude(m)": 558691.8310756194,
        "Argument of Periapsis(deg)": 0.010457354385337106,
        "Eccentricity": 0.0,
        "Inclination(deg)": 53.0,
        "Latitude(deg)": 47.875758629544926,
        "Longitude(deg)": -35.27214295267183,
        "Mean Anomaly(deg)": 67.89583610670145,
        "RAAN(deg)": 9.984436897675815,
        "Satellite Name": "Starlink Shell 1 47",
        "Satellite Number": 47,
        "Semi-Major Axis(m)": 6931778.249405717,
        "Time(s)": 300
    },
    {
        "Altitude(m)": 558755.3446457947,
        "Argument of Periapsis(deg)": 0.010805932864848343,
        "Eccentricity": 0.0,
        "Inclination(deg)": 53.0,
        "Latitude(deg)": 48.153222056794505,
        "Longitude(deg)": -34.47503182025089,
        "Mean Anomaly(deg)": 68.52266731025817,
        "RAAN(deg)": 9.983918127598342,
        "Satellite Name": "Starlink Shell 1 47",
        "Satellite Number": 47,
        "Semi-Major Axis(m)": 6931778.249405717,
        "Time(s)": 310
    },
    {
        "Altitude(m)": 558817.4823543859,
        "Argument of Periapsis(deg)": 0.01115451134435958,
        "Eccentricity": 0.0,
        "Inclination(deg)": 53.0,
        "Latitude(deg)": 48.424493360148276,
        "Longitude(deg)": -33.66894210437912,
        "Mean Anomaly(deg)": 69.14949851381488,
        "RAAN(deg)": 9.98339935752087,
        "Satellite Name": "Starlink Shell 1 47",
        "Satellite Number": 47,
        "Semi-Major Axis(m)": 6931778.249405717,
        "Time(s)": 320
    },
    {
        "Altitude(m)": 558878.2061144027,
        "Argument of Periapsis(deg)": 0.011503089823870818,
        "Eccentricity": 0.0,
        "Inclination(deg)": 53.0,
        "Latitude(deg)": 48.6894481339944,
        "Longitude(deg)": -32.85389955599649,
        "Mean Anomaly(deg)": 69.77632971737158,
        "RAAN(deg)": 9.982880587443397,
        "Satellite Name": "Starlink Shell 1 47",
        "Satellite Number": 47,
        "Semi-Major Axis(m)": 6931778.249405717,
        "Time(s)": 330
    },
    {
        "Altitude(m)": 558937.4787586757,
        "Argument of Periapsis(deg)": 0.011851668303382053,
        "Eccentricity": 0.0,
        "Inclination(deg)": 53.0,
        "Latitude(deg)": 48.947961739941285,
        "Longitude(deg)": -32.02994266909541,
        "Mean Anomaly(deg)": 70.4031609209283,
        "RAAN(deg)": 9.982361817365925,
        "Satellite Name": "Starlink Shell 1 47",
        "Satellite Number": 47,
        "Semi-Major Axis(m)": 6931778.249405717,
        "Time(s)": 340
    },
    {
        "Altitude(m)": 558995.26405821,
        "Argument of Periapsis(deg)": 0.012200246782893292,
        "Eccentricity": 0.0,
        "Inclination(deg)": 53.0,
        "Latitude(deg)": 49.19990949152148,
        "Longitude(deg)": -31.197122708097723,
        "Mean Anomaly(deg)": 71.02999212448503,
        "RAAN(deg)": 9.981843047288452,
        "Satellite Name": "Starlink Shell 1 47",
        "Satellite Number": 47,
        "Semi-Major Axis(m)": 6931778.249405717,
        "Time(s)": 350
    },
    {
        "Altitude(m)": 559051.5267400446,
        "Argument of Periapsis(deg)": 0.012548825262404526,
        "Eccentricity": 0.0,
        "Inclination(deg)": 53.0,
        "Latitude(deg)": 49.44516685006751,
        "Longitude(deg)": -30.355503718400403,
        "Mean Anomaly(deg)": 71.65682332804172,
        "RAAN(deg)": 9.981324277210978,
        "Satellite Name": "Starlink Shell 1 47",
        "Satellite Number": 47,
        "Semi-Major Axis(m)": 6931778.249405717,
        "Time(s)": 360
    },
    {
        "Altitude(m)": 559106.2325046202,
        "Argument of Periapsis(deg)": 0.012897403741915765,
        "Eccentricity": 0.0,
        "Inclination(deg)": 53.0,
        "Latitude(deg)": 49.68360963158973,
        "Longitude(deg)": -29.505164028454455,
        "Mean Anomaly(deg)": 72.28365453159846,
        "RAAN(deg)": 9.980805507133507,
        "Satellite Name": "Starlink Shell 1 47",
        "Satellite Number": 47,
        "Semi-Major Axis(m)": 6931778.249405717,
        "Time(s)": 370
    }
]